0 FENGYUN 1C DEB
1 37040U 99025EDY 13286.68555296  .00002709  00000-0  14590-2 0   917
2 37040 099.5817 092.7355 0085610 133.3514 227.8579 14.11857480245714
0 FENGYUN 1C DEB
1 37040U 99025EDY 13295.68550347  .00003101  00000-0  16374-2 0   929
2 37040 099.6078 102.4101 0103934 110.8188 250.8827 14.11921504246980
